{
    "links": {
        "self": "http://www.neowsapp.com/rest/v1/neo/3694986?api_key=iIulBulltgU6a56xZRHN4H3l9WmuAYTsLGpBGhQ2"
    },
    "id": "3694986",
    "neo_reference_id": "3694986",
    "name": "(2014 UU116)",
    "designation": "2014 UU116",
    "nasa_jpl_url": "http://ssd.jpl.nasa.gov/sbdb.cgi?sstr=3694986",
    "absolute_magnitude_h": 26.2,
    "estimated_diameter": {
        "kilometers": {
            "estimated_diameter_min": 0.0152951935,
            "estimated_diameter_max": 0.0342010925
        },
        "meters": {
            "estimated_diameter_min": 15.2951935344,
            "estimated_diameter_max": 34.201092472
        },
        "miles": {
            "estimated_diameter_min": 0.0095039897,
            "estimated_diameter_max": 0.021251567
        },
        "feet": {
            "estimated_diameter_min": 50.1810827555,
            "estimated_diameter_max": 112.2083122258
        }
    },
    "is_potentially_hazardous_asteroid": false,
    "close_approach_data": [
        {
            "close_approach_date": "2014-10-29",
            "close_approach_date_full": "2014-Oct-29 00:55",
            "epoch_date_close_approach": 1414544100000,
            "relative_velocity": {
                "kilometers_per_second": "11.7282341566",
                "kilometers_per_hour": "42221.6429636498",
                "miles_per_hour": "26234.8869848301"
            },
            "miss_distance": {
                "astronomical": "0.0174368784",
                "lunar": "6.7829456976",
                "kilometers": "2608519.868089008",
                "miles": "1620859.0857959904"
            },
            "orbiting_body": "Earth"
        }
    ],
    "orbital_data": {
        "orbit_id": "5",
        "orbit_determination_date": "2019-07-17 06:10:13",
        "first_observation_date": "2014-10-27",
        "last_observation_date": "2014-10-31",
        "data_arc_in_days": 4,
        "observations_used": 31,
        "orbit_uncertainty": "7",
        "minimum_orbit_intersection": ".0177645",
        "jupiter_tisserand_invariant": "4.126",
        "epoch_osculation": "2459000.5",
        "eccentricity": ".398611276185542",
        "semi_major_axis": "1.654616661070889",
        "inclination": "18.43991010233857",
        "ascending_node_longitude": "34.39699175089115",
        "orbital_period": "777.3999646488596",
        "perihelion_distance": ".9950678022035612",
        "perihelion_argument": "19.36870982482476",
        "aphelion_distance": "2.314165519938216",
        "perihelion_time": "2459307.644887863967",
        "mean_anomaly": "217.7667035514056",
        "mean_motion": ".4630820894912271",
        "equinox": "J2000",
        "orbit_class": {
            "orbit_class_type": "APO",
            "orbit_class_description": "Near-Earth asteroid orbits which cross the Earth’s orbit similar to that of 1862 Apollo",
            "orbit_class_range": "a (semi-major axis) > 1.0 AU; q (perihelion) < 1.017 AU"
        }
    },
    "is_sentry_object": false
}